satname,norad_id,inclination_deg,eccentricity,mean_motion_rev_per_day,perigee_km,apogee_km,l1,l2
STARLINK-1225,45187,53.157,0.0001472,15.30946053,471.9799086401181,473.99687995619934,1 45187U 20012K   26108.77613824  .00029524  00000+0  98209-3 0  9997,2 45187  53.1570 213.4377 0001472  25.6377 334.4697 15.30946053341076
STARLINK-1230,45189,53.156,0.0001457,15.30978351,471.89384336682906,473.89023322858975,1 45189U 20012M   26109.00002315  .00003648  00000+0  13211-3 0  9992,2 45189  53.1560 212.4541 0001457  38.1045  64.1858 15.30978351  5724
STARLINK-1234,45190,53.0401,0.0009083,15.68037058,358.3939720531307,370.6426797181348,1 45190U 20012N   26108.09882949  .00038287  00000+0  34139-3 0  9990,2 45190  53.0401 131.6525 0009083  51.2016 308.9810 15.68037058342058
STARLINK-1269,45197,53.1559,0.0001051,15.31004174,472.09496682260215,473.53503693339735,1 45197U 20012V   26108.78202445  .00025155  00000+0  83751-3 0  9994,2 45197  53.1559 213.3231 0001051  11.0191 349.0833 15.31004174341050
STARLINK-1154,45198,53.0443,0.0003616,15.52616356,406.63619003620624,411.54471292911876,1 45198U 20012W   26108.48391425  .00086108  00000+0  13682-2 0  9999,2 45198  53.0443 179.2015 0003616 301.4619  58.6036 15.52616356341469
STARLINK-1199,45201,53.1572,0.0001568,15.3093934,471.934162300392,474.0826815047003,1 45201U 20012Z   26108.94756700  .00024816  00000+0  82807-3 0  9990,2 45201  53.1572 196.8042 0001568  38.7231 321.3883 15.30939340341329
STARLINK-1209,45206,53.0418,0.0012308,15.58185847,384.5737461578801,401.241349416714,1 45206U 20012AE  26108.78517862  .00076294  00000+0  98681-3 0  9995,2 45206  53.0418 139.6256 0012308  38.4521 321.7365 15.58185847341152
STARLINK-1231,45212,53.0366,0.0003441,15.24523027,489.85397614955764,494.58215450551506,1 45212U 20012AL  26108.51639613  .00031770  00000+0  12826-2 0  9998,2 45212  53.0366 192.3603 0003441 287.9109  72.1512 15.24523027341299
STARLINK-1271,45217,53.158,0.0001704,15.30826305,472.1781805334813,474.51316582850086,1 45217U 20012AR  26108.94639159  .00029892  00000+0  99783-3 0  9995,2 45217  53.1580 196.9443 0001704  36.1208 323.9908 15.30826305341321
STARLINK-1191,45222,53.1562,0.0004884,15.34174187,460.0330921428267,466.71588056269684,1 45222U 20012AW  26108.46148730  .00047118  00000+0  14066-2 0  9999,2 45222  53.1562 173.5452 0004884  12.1817 347.9303 15.34174187341615
STARLINK-1212,45223,53.0433,0.0006159,15.59994282,383.50655088160147,391.84067639548084,1 45223U 20012AX  26108.92699608  .00069555  00000+0  84348-3 0  9996,2 45223  53.0433 155.2144 0006159 344.0287  16.0530 15.59994282341903
STARLINK-1215,45225,53.1577,0.0001777,15.30968546,471.7038565560515,474.13872267217994,1 45225U 20012AZ  26108.88635786  .00021636  00000+0  72314-3 0  9998,2 45225  53.1577 171.5579 0001777  40.7316 319.3818 15.30968546341633
STARLINK-1221,45227,53.0648,0.0003733,15.43304669,433.8201730387709,438.9078795049845,1 45227U 20012BB  26108.62515087  .00013698  00000+0  31154-3 0  9999,2 45227  53.0648  80.1568 0003733 108.6003 251.5408 15.43304669342870
STARLINK-1222,45228,53.0538,2.51e-05,15.51918047,410.95589875339374,411.2967197715179,1 45228U 20012BC  26108.38453981  .00023210  00000+0  38678-3 0  9996,2 45228  53.0538 152.1357 0000251 357.5181   2.5827 15.51918047341787
STARLINK-1226,45229,53.158,0.0002786,15.38917415,447.40725951246714,451.211512638788,1 45229U 20012BD  26108.47062683  .00021454  00000+0  55742-3 0  9991,2 45229  53.1580 172.5131 0002786  34.4129 325.7056 15.38917415341529
STARLINK-1227,45230,53.1559,0.0003604,15.39012088,446.56887687678955,451.4898984090023,1 45230U 20012BE  26108.87380354  .00038381  00000+0  98391-3 0  9999,2 45230  53.1559 170.7727 0003604  25.5296 334.5886 15.39012088341706
STARLINK-1246,45235,53.1575,0.000134,15.30945999,472.07050457707555,473.9066062259235,1 45235U 20012BK  26108.53075282  .00051361  00000+0  16947-2 0  9997,2 45235  53.1575 214.1554 0001340  33.7516 326.3570 15.30945999341077
STARLINK-1270,45237,53.0435,0.0005047,15.53829595,402.13325729507596,408.98071800621074,1 45237U 20012BM  26108.48343878  .00084877  00000+0  12908-2 0  9993,2 45237  53.0435 156.4628 0005047 359.2135   0.8866 15.53829595341849
STARLINK-1279,45360,53.0403,0.0005269,15.65895884,367.10749565962396,374.21938156183296,1 45360U 20019A   26108.82892351  .00073448  00000+0  70692-3 0  9997,2 45360  53.0403 262.7059 0005269 291.6586  68.3868 15.65895884336948
STARLINK-1301,45361,53.0409,0.0003218,15.70057488,356.5646315543527,360.90048080070846,1 45361U 20019B   26108.69942593  .00070835  00000+0  57603-3 0  9991,2 45361  53.0409 266.9394 0003218 334.5638  25.5220 15.70057488336886
STARLINK-1262,45366,53.1552,0.0001124,15.3005167,474.88762528469215,476.4283583988581,1 45366U 20019G   26108.92481447  .00028264  00000+0  96719-3 0  9998,2 45366  53.1552 338.4178 0001124 127.5571 232.5532 15.30051670335918
STARLINK-1273,45367,53.048,0.0003516,15.50253104,413.59765410271757,418.3752817253544,1 45367U 20019H   26108.96845716  .00047694  00000+0  83204-3 0  9999,2 45367  53.0480 322.3119 0003516 173.8839 186.2213 15.50253104336137
STARLINK-1277,45369,53.0491,0.0005226,15.55821622,396.2231949892994,403.30745850121457,1 45369U 20019K   26107.90101787  .00053267  00000+0  75865-3 0  9994,2 45369  53.0491 323.7737 0005226 173.0731 187.0352 15.55821622336027
STARLINK-1281,45370,53.1621,9.3e-05,15.30974529,472.26629369556485,473.5405872174888,1 45370U 20019L   26108.90195348  .00031098  00000+0  10327-2 0  9992,2 45370  53.1621 338.4711 0000930 135.5459 224.5617 15.30974529335913
STARLINK-1300,45374,53.1598,3.66e-05,15.31079017,472.34100219035463,472.8424755340402,1 45374U 20019Q   26108.92376606  .00017374  00000+0  58139-3 0  9991,2 45374  53.1598 338.3740 0000366  75.4268 284.6774 15.31079017335914
STARLINK-1302,45375,53.05,0.0002074,15.60667676,384.3244485775849,387.1300994784515,1 45375U 20019R   26108.30084534  .00049712  00000+0  59113-3 0  9994,2 45375  53.0500 319.5769 0002074 148.9589 211.1546 15.60667676336110
STARLINK-1304,45376,53.0462,0.0002932,15.55115079,399.83024670482973,403.8060123927962,1 45376U 20019S   26108.96264136  .00042597  00000+0  62509-3 0  9992,2 45376  53.0462 315.7190 0002932 180.1499 179.9510 15.55115079336228
STARLINK-1305,45377,53.0404,0.0006572,15.61106372,380.01566612435363,388.90442368017375,1 45377U 20019T   26108.63379532  .00111117  00000+0  12810-2 0  9998,2 45377  53.0404 298.5107 0006572 246.3665 113.6658 15.61106372336440
STARLINK-1319,45379,53.0428,0.0001624,15.70188171,357.26474840524315,359.4527622265705,1 45379U 20019V   26108.95986779  .00062613  00000+0  50755-3 0  9999,2 45379  53.0428 291.2478 0001624 215.3465 144.7444 15.70188171336575
STARLINK-1266,45383,53.0484,0.0003698,15.51802134,408.95359646507404,413.9751856539024,1 45383U 20019Z   26108.79844032  .00055614  00000+0  91606-3 0  9994,2 45383  53.0484 300.8732 0003698 187.5986 172.4967 15.51802134336415
STARLINK-1267,45384,53.0498,0.0002085,15.5708039,394.6994957306533,397.5243575330587,1 45384U 20019AA  26108.89313669  .00066579  00000+0  90226-3 0  9992,2 45384  53.0498 293.0713 0002085 285.9058  74.1723 15.57080390336534
STARLINK-1272,45386,53.0421,0.000519,15.64092371,372.34502997289474,379.35566884157925,1 45386U 20019AC  26108.83433006  .00081642  00000+0  84267-3 0  9992,2 45386  53.0421 274.1739 0005190 275.0766  84.9655 15.64092371336797
STARLINK-1274,45387,53.0262,0.0005251,15.53661628,402.48352970345604,409.60827858938956,1 45387U 20019AD  26108.62297526  .00068666  00000+0  10541-2 0  9999,2 45387  53.0262 271.0780 0005251 318.5575  41.5035 15.53661628336811
STARLINK-1280,45388,53.0404,0.0001875,15.7078306,355.39503763404446,357.9205856884173,1 45388U 20019AE  26108.86515753  .00064294  00000+0  50819-3 0  9997,2 45388  53.0404 284.3541 0001875 267.3772  92.7030 15.70783060336648
STARLINK-1283,45389,53.0416,7.13e-05,15.65693381,370.76411080465186,371.72657272658853,1 45389U 20019AF  26108.82918171  .00048908  00000+0  47804-3 0  9999,2 45389  53.0416 273.7573 0000713 350.4372   9.6629 15.65693381336808
STARLINK-1284,45390,53.0482,0.0004309,15.58919113,387.8673970973359,393.7008533230419,1 45390U 20019AG  26108.90080271  .00062116  00000+0  78636-3 0  9995,2 45390  53.0482 296.4370 0004309 196.1581 163.9294 15.58919113336484
STARLINK-1297,45395,53.0446,0.0004721,15.62222741,378.04684556854136,384.42904739300866,1 45395U 20019AM  26108.96759545  .00079321  00000+0  88133-3 0  9992,2 45395  53.0446 295.0035 0004721 202.1838 157.8972 15.62222741335699
STARLINK-1307,45397,53.0546,0.0001434,15.53380631,405.8910549700968,407.8369932638134,1 45397U 20019AP  26108.93780520  .00034485  00000+0  54101-3 0  9998,2 45397  53.0546 297.1362 0001434 110.6346 249.4817 15.53380631336301
STARLINK-1255,45399,53.0383,0.0003169,15.59478123,387.0218799784252,391.3109968977069,1 45399U 20019AR  26108.83963165  .00070448  00000+0  87156-3 0  9992,2 45399  53.0383 268.3688 0003169 276.1369  83.9282 15.59478123336681
STARLINK-1260,45404,53.1583,0.0001575,15.3328144,464.9519009428386,467.1078135028638,1 45404U 20019AW  26108.83389998  .00043558  00000+0  13393-2 0  9998,2 45404  53.1583 302.4238 0001575 244.0649 116.0191 15.33281440336128
STARLINK-1263,45405,53.1601,4.76e-05,15.30870925,472.88641573224413,473.5386642084504,1 45405U 20019AX  26108.26431898  .00031230  00000+0  10404-2 0  9997,2 45405  53.1601 305.4241 0000476  74.4026 285.7027 15.30870925336031
STARLINK-1265,45406,53.1608,0.0001417,15.33456437,464.539401565321,466.4788908831606,1 45406U 20019AY  26108.96654803  .00038212  00000+0  11707-2 0  9992,2 45406  53.1608 301.9026 0001417 215.1764 144.9145 15.33456437336140
STARLINK-1278,45408,53.0437,0.0003327,15.63482823,375.3580308454366,379.8533020156792,1 45408U 20019BA  26108.89496038  .00094972  00000+0  10018-2 0  9999,2 45408  53.0437 294.6304 0003327 231.8302 128.2412 15.63482823336236
